NORAD_CAT_ID,OBJECT_NAME,OBJECT_TYPE,EPOCH,MEAN_MOTION,ECCENTRICITY,INCLINATION,RA_OF_ASC_NODE,ARG_OF_PERICENTER,MEAN_ANOMALY,BSTAR,MEAN_MOTION_DOT,MEAN_MOTION_DDOT,TLE_LINE0,TLE_LINE1,TLE_LINE2,SEMIMAJOR_AXIS,PERIOD,APOGEE,PERIGEE,DECAYED
50187.0,STARLINK-3272,PAYLOAD,2023-04-23 03:41:06,15.08836841,9.91e-05,53.2151,279.6495,97.1929,262.9175,-6.9981e-05,-1.401e-05,0.0,0 STARLINK-3272,1 50187U 21125AH  23113.15354525 -.00001401  00000-0 -69981-4 0  9997,2 50187  53.2151 279.6495 0000991  97.1929 262.9175 15.08836841 74904,6917.89,95.438,540.441,539.069,0.0
50187.0,STARLINK-3272,PAYLOAD,2023-04-23 13:13:25,15.08835355,0.0001203,53.2154,277.8654,103.7721,256.3405,-0.00010633,-1.979e-05,0.0,0 STARLINK-3272,1 50187U 21125AH  23113.55098987 -.00001979  00000-0 -10633-3 0  9997,2 50187  53.2154 277.8654 0001203 103.7721 256.3405 15.08835355 78035,6917.895,95.438,540.592,538.927,0.0
50187.0,STARLINK-3272,PAYLOAD,2023-04-23 21:10:20,15.08845524,0.0001148,53.2157,276.3792,86.2028,273.9096,0.0002175,3.176e-05,0.0,0 STARLINK-3272,1 50187U 21125AH  23113.88218685  .00003176  00000-0  21750-3 0  9993,2 50187  53.2157 276.3792 0001148  86.2028 273.9096 15.08845524 78083,6917.864,95.437,540.523,538.934,0.0
50187.0,STARLINK-3272,PAYLOAD,2023-04-24 03:31:53,15.0886718,0.0001198,53.2158,275.1887,88.0759,272.0371,0.0020111,0.00031888,0.0,0 STARLINK-3272,1 50187U 21125AH  23114.14714897  .00031888  00000-0  20111-2 0  9999,2 50187  53.2158 275.1887 0001198  88.0759 272.0371 15.08867180 75054,6917.797,95.436,540.491,538.834,0.0
50187.0,STARLINK-3272,PAYLOAD,2023-04-24 11:28:48,15.0889128,7.28e-05,53.2154,273.7022,79.1138,280.9936,0.0029726,0.00047406,0.0,0 STARLINK-3272,1 50187U 21125AH  23114.47834239  .00047406  00000-0  29726-2 0  9992,2 50187  53.2154 273.7022 0000728  79.1138 280.9936 15.08891280 78174,6917.724,95.434,540.092,539.085,0.0
50187.0,STARLINK-3272,PAYLOAD,2023-04-24 17:50:20,15.08924306,0.0001018,53.2152,272.5131,87.9787,272.1321,0.0041176,0.0006601,0.0,0 STARLINK-3272,1 50187U 21125AH  23114.74329199  .00066010  00000-0  41176-2 0  9991,2 50187  53.2152 272.5131 0001018  87.9787 272.1321 15.08924306 75141,6917.623,95.432,540.192,538.783,0.0
50187.0,STARLINK-3272,PAYLOAD,2023-04-25 03:22:40,15.08833887,0.0002398,53.215,270.729,91.8106,268.3161,-0.00028124,-4.761e-05,0.0,0 STARLINK-3272,1 50187U 21125AH  23115.14074271 -.00004761  00000-0 -28124-3 0  9990,2 50187  53.2150 270.7290 0002398  91.8106 268.3161 15.08833887 75205,6917.899,95.438,541.423,538.105,0.0
50187.0,STARLINK-3272,PAYLOAD,2023-04-26 12:45:49,15.08850731,0.000153,53.2128,264.4863,121.2325,238.8817,0.0014713,0.00023212,0.0,0 STARLINK-3272,1 50187U 21125AH  23116.53181797  .00023212  00000-0  14713-2 0  9994,2 50187  53.2128 264.4863 0001530 121.2325 238.8817 15.08850731 78484,6917.848,95.437,540.771,538.654,0.0
50187.0,STARLINK-3272,PAYLOAD,2023-04-27 12:36:34,15.08854872,9.01e-05,53.214,260.0259,162.2443,197.8581,-8.1763e-05,-1.589e-05,0.0,0 STARLINK-3272,1 50187U 21125AH  23117.52539441 -.00001589  00000-0 -81763-4 0  9993,2 50187  53.2140 260.0259 0000901 162.2443 197.8581 15.08854872 78635,6917.835,95.437,540.323,539.077,0.0
50187.0,STARLINK-3272,PAYLOAD,2023-04-27 18:58:06,15.08865009,0.0001463,53.2141,258.8332,140.8047,219.3051,0.00059409,9.186e-05,0.0,0 STARLINK-3272,1 50187U 21125AH  23117.79035188  .00009186  00000-0  59409-3 0  9991,2 50187  53.2141 258.8332 0001463 140.8047 219.3051 15.08865009 75609,6917.804,95.436,540.681,538.657,0.0
50187.0,STARLINK-3272,PAYLOAD,2023-04-28 12:27:21,15.08845751,8.55e-05,53.2121,255.563,109.5695,250.539,0.00038031,5.771e-05,0.0,0 STARLINK-3272,1 50187U 21125AH  23118.51899698  .00005771  00000-0  38031-3 0  9990,2 50187  53.2121 255.5630 0000855 109.5695 250.5390 15.08845751 75714,6917.863,95.437,540.319,539.136,0.0
50187.0,STARLINK-3272,PAYLOAD,2023-04-29 13:53:31,15.08845833,9.78e-05,53.2145,250.8048,137.9225,222.1843,0.00022664,3.322e-05,0.0,0 STARLINK-3272,1 50187U 21125AH  23119.57883503  .00003322  00000-0  22664-3 0  9990,2 50187  53.2145 250.8048 0000978 137.9225 222.1843 15.08845833 78948,6917.863,95.437,540.404,539.051,0.0
50187.0,STARLINK-3272,PAYLOAD,2023-04-29 18:39:40,15.08851291,9.51e-05,53.2154,249.9129,137.5761,222.5305,0.00033363,5.028e-05,0.0,0 STARLINK-3272,1 50187U 21125AH  23119.77755256  .00005028  00000-0  33363-3 0  9998,2 50187  53.2154 249.9129 0000951 137.5761 222.5305 15.08851291 75904,6917.846,95.437,540.369,539.053,0.0
50187.0,STARLINK-3272,PAYLOAD,2023-04-30 13:44:18,15.08840961,9.86e-05,53.2155,246.3431,127.1801,232.9281,8.8129e-05,1.115e-05,0.0,0 STARLINK-3272,1 50187U 21125AH  23120.57243602  .00001115  00000-0  88129-4 0  9999,2 50187  53.2155 246.3431 0000986 127.1801 232.9281 15.08840961 79094,6917.877,95.437,540.425,539.06,0.0
50187.0,STARLINK-3272,PAYLOAD,2023-04-30 15:19:41,15.08842181,7.23e-05,53.2152,246.0455,122.3722,237.734,9.1156e-05,1.163e-05,0.0,0 STARLINK-3272,1 50187U 21125AH  23120.63867530  .00001163  00000-0  91156-4 0  9995,2 50187  53.2152 246.0455 0000723 122.3722 237.7340 15.08842181 76038,6917.874,95.437,540.239,539.239,0.0
50187.0,STARLINK-3272,PAYLOAD,2023-05-01 13:35:05,15.08837013,6.75e-05,53.2156,241.8842,105.899,254.2077,2.4331e-05,1e-06,0.0,0 STARLINK-3272,1 50187U 21125AH  23121.56603975  .00000100  00000-0  24331-4 0  9990,2 50187  53.2156 241.8842 0000675 105.8990 254.2077 15.08837013 76178,6917.89,95.438,540.221,539.288,0.0
50187.0,STARLINK-3272,PAYLOAD,2023-05-02 13:25:52,15.08850263,5.58e-05,53.2155,237.4253,90.4913,269.6143,0.00016407,2.325e-05,0.0,0 STARLINK-3272,1 50187U 21125AH  23122.55963372  .00002325  00000-0  16407-3 0  9995,2 50187  53.2155 237.4253 0000558  90.4913 269.6143 15.08850263 76321,6917.849,95.437,540.1,539.328,0.0
50187.0,STARLINK-3272,PAYLOAD,2023-05-02 16:36:38,15.08856064,6.6e-05,53.2157,236.829,98.1319,261.9748,0.00032262,4.853e-05,0.0,0 STARLINK-3272,1 50187U 21125AH  23122.69211052  .00004853  00000-0  32262-3 0  9996,2 50187  53.2157 236.8290 0000660  98.1319 261.9748 15.08856064 79410,6917.831,95.437,540.153,539.24,0.0
50187.0,STARLINK-3272,PAYLOAD,2023-05-03 02:08:57,15.08841267,6.74e-05,53.2153,235.0466,98.0962,262.0106,0.00010454,1.377e-05,0.0,0 STARLINK-3272,1 50187U 21125AH  23123.08955755  .00001377  00000-0  10454-3 0  9992,2 50187  53.2153 235.0466 0000674  98.0962 262.0106 15.08841267 76405,6917.877,95.437,540.208,539.275,0.0
50187.0,STARLINK-3272,PAYLOAD,2023-05-03 13:16:40,15.08834848,6.2e-05,53.2153,232.9645,99.6715,260.4348,-2.7564e-05,-7.26e-06,0.0,0 STARLINK-3272,1 50187U 21125AH  23123.55324108 -.00000726  00000-0 -27564-4 0  9996,2 50187  53.2153 232.9645 0000620  99.6715 260.4348 15.08834848 79549,6917.896,95.438,540.19,539.332,0.0
50187.0,STARLINK-3272,PAYLOAD,2023-05-03 14:52:03,15.08837049,6.52e-05,53.2153,232.6664,98.0211,262.0855,2.6632e-05,1.36e-06,0.0,0 STARLINK-3272,1 50187U 21125AH  23123.61948061  .00000136  00000-0  26632-4 0  9991,2 50187  53.2153 232.6664 0000652  98.0211 262.0855 15.08837049 79554,6917.889,95.438,540.205,539.303,0.0
50187.0,STARLINK-3272,PAYLOAD,2023-05-04 13:07:25,15.08874969,5.48e-05,53.2154,228.5032,108.2911,251.8141,0.001138,0.00017887,0.0,0 STARLINK-3272,1 50187U 21125AH  23124.54682669  .00017887  00000-0  11380-2 0  9996,2 50187  53.2154 228.5032 0000548 108.2911 251.8141 15.08874969 76624,6917.774,95.435,540.018,539.259,0.0
50187.0,STARLINK-3272,PAYLOAD,2023-05-04 14:42:48,15.08880468,6.01e-05,53.2153,228.206,103.6512,256.4547,0.0012731,0.00020054,0.0,0 STARLINK-3272,1 50187U 21125AH  23124.61306480  .00020054  00000-0  12731-2 0  9999,2 50187  53.2153 228.2060 0000601 103.6512 256.4547 15.08880468 79701,6917.757,95.435,540.037,539.206,0.0
50187.0,STARLINK-3272,PAYLOAD,2023-05-05 14:33:37,15.08831176,8.53e-05,53.2157,223.7464,89.1231,270.9859,0.0010016,0.00015685,0.0,0 STARLINK-3272,1 50187U 21125AH  23125.60667850  .00015685  00000-0  10016-2 0  9998,2 50187  53.2157 223.7464 0000853  89.1231 270.9859 15.08831176 76782,6917.907,95.438,540.362,539.182,0.0
50187.0,STARLINK-3272,PAYLOAD,2023-05-06 06:27:28,15.0883692,0.0001002,53.2156,220.7722,80.7584,279.3521,0.0009258,0.00014476,0.0,0 STARLINK-3272,1 50187U 21125AH  23126.26908499  .00014476  00000-0  92580-3 0  9992,2 50187  53.2156 220.7722 0001002  80.7584 279.3521 15.08836920 76882,6917.89,95.438,540.448,539.062,0.0
50187.0,STARLINK-3272,PAYLOAD,2023-05-06 12:49:01,15.08849282,0.0001351,53.2155,219.5862,57.6228,302.4895,0.0010538,0.00016527,0.0,0 STARLINK-3272,1 50187U 21125AH  23126.53404478  .00016527  00000-0  10538-2 0  9991,2 50187  53.2155 219.5862 0001351  57.6228 302.4895 15.08849282 79999,6917.852,95.437,540.652,538.782,0.0
50187.0,STARLINK-3272,PAYLOAD,2023-05-07 12:39:48,15.08835765,9.5e-05,53.2145,215.1236,95.5978,264.5123,0.00018466,2.652e-05,0.0,0 STARLINK-3272,1 50187U 21125AH  23127.52764703  .00002652  00000-0  18466-3 0  9994,2 50187  53.2145 215.1236 0000950  95.5978 264.5123 15.08835765 77072,6917.893,95.438,540.416,539.101,0.0
50187.0,STARLINK-3272,PAYLOAD,2023-05-08 12:30:35,15.08847142,9.73e-05,53.2157,210.6632,107.087,253.0228,8.8632e-05,1.123e-05,0.0,0 STARLINK-3272,1 50187U 21125AH  23128.52124019  .00001123  00000-0  88632-4 0  9990,2 50187  53.2157 210.6632 0000973 107.0870 253.0228 15.08847142 77228,6917.859,95.437,540.397,539.05,0.0
50187.0,STARLINK-3272,PAYLOAD,2023-05-09 10:45:59,15.08834783,9.21e-05,53.2158,206.5004,104.3617,255.7477,8.6622e-05,1.091e-05,0.0,0 STARLINK-3272,1 50187U 21125AH  23129.44860910  .00001091  00000-0  86622-4 0  9990,2 50187  53.2158 206.5004 0000921 104.3617 255.7477 15.08834783 80437,6917.896,95.438,540.398,539.124,0.0
50187.0,STARLINK-3272,PAYLOAD,2023-05-10 12:12:10,15.08838657,9e-05,53.2161,201.7425,90.8904,269.2192,0.00010776,1.428e-05,0.0,0 STARLINK-3272,1 50187U 21125AH  23130.50844914  .00001428  00000-0  10776-3 0  9995,2 50187  53.2161 201.7425 0000900  90.8904 269.2192 15.08838657 80595,6917.884,95.438,540.372,539.127,0.0
